ONEWEB-0331             
1 49198U 21083N   25162.94700618  .00000049  00000+0  90491-4 0  9995
2 49198  87.9141  49.0272 0001937  68.6090 291.5248 13.18685226181212
ONEWEB-0333             
1 49199U 21083P   25162.91705501  .00000038  00000+0  68976-4 0  9990
2 49199  87.8976  33.8501 0001804  84.8359 275.2976 13.13470196182306
ONEWEB-0334             
1 49200U 21083Q   25162.76758109  .00000067  00000+0  13264-3 0  9999
2 49200  87.9251 348.2468 0002093 120.7888 239.3452 13.20771116187892
ONEWEB-0335             
1 49201U 21083R   25162.68343874 -.00000084  00000+0 -26418-3 0  9996
2 49201  87.8978  33.8850 0001752  75.8739 284.2585 13.13470023182285
ONEWEB-0336             
1 49202U 21083S   25162.88319133  .00000004  00000+0 -24796-4 0  9999
2 49202  87.8978  33.8385 0001681  82.3765 277.7555 13.13468319182304
ONEWEB-0337             
1 49203U 21083T   25162.89320881 -.00000275  00000+0 -78913-3 0  9993
2 49203  87.8980  33.8361 0001943  78.1672 281.9674 13.13468772182305
ONEWEB-0338             
1 49204U 21083U   25161.98477289  .00000030  00000+0  41312-4 0  9999
2 49204  87.9257 348.3924 0001910 101.1093 259.0255 13.20771433189117
ONEWEB-0339             
1 49205U 21083V   25162.67327978 -.00000263  00000+0 -75541-3 0  9996
2 49205  87.8974  33.8668 0001918  83.6636 276.4712 13.13470177182251
